IRIDIUM 159             
1 43578U 18061K   24268.84766728  .00000365  00000+0  12343-3 0  9992
2 43578  86.3972 320.1443 0002302  95.0145 265.1314 14.34218135323037
IRIDIUM 180             
1 43922U 19002A   24268.49832400  .00000333  00000+0  11194-3 0  9991
2 43922  86.3914 257.1212 0002346  84.6486 275.4977 14.34219490298595
IRIDIUM 176             
1 43923U 19002B   24269.50616214  .00001175  00000+0  18236-3 0  9997
2 43923  86.6046 256.7128 0002698  84.7593 275.3932 14.72262188306602
IRIDIUM 168             
1 43924U 19002C   24268.70128432  .00000099  00000+0  28326-4 0  9995
2 43924  86.3917 257.0959 0002351  87.4440 272.7025 14.34217973298604
IRIDIUM 173             
1 43925U 19002D   24268.68859851  .00000002  00000+0 -64344-5 0  9995
2 43925  86.3915 257.0161 0002188  85.3883 274.7562 14.34217717298585
IRIDIUM 169             
1 43926U 19002E   24268.52051161  .00000316  00000+0  96649-4 0  9996
2 43926  86.4171 288.7382 0000483 127.8902 232.2340 14.38611503299553
IRIDIUM 172             
1 43927U 19002F   24268.68225667  .00000104  00000+0  29958-4 0  9992
2 43927  86.3914 257.0245 0002322  89.7787 270.3675 14.34218391298597
IRIDIUM 175             
1 43928U 19002G   24269.16080658  .00003126  00000+0  49165-3 0  9994
2 43928  86.1520 224.3665 0002126  93.0612 267.0847 14.72257054306549
